{
  "type": "FeatureCollection",
  "features": [
    {
      "type": "Feature",
      "properties": {
        "norad_id": 35033,
        "name": "COSMOS 2251 DEB",
        "group": "cosmos-2251-debris",
        "lat": 25.180989581918244,
        "lon": -168.15348026063123,
        "alt_km": 722.6052579430434,
        "timestamp": "2025-12-08T17:43:05.333798+00:00",
        "meta_object_name": "COSMOS 2251 DEB",
        "meta_object_id": "1993-036AGW",
        "meta_epoch": "2025-12-07T20:05:05.429760",
        "meta_mean_motion": 14.50894479,
        "meta_eccentricity": 0.0014382,
        "meta_inclination": 74.0255,
        "meta_ra_of_asc_node": 185.802,
        "meta_arg_of_pericenter": 292.4939,
        "meta_mean_anomaly": 67.4698,
        "meta_ephemeris_type": 0,
        "meta_classification_type": "U",
        "meta_norad_cat_id": 35033,
        "meta_element_set_no": 999,
        "meta_rev_at_epoch": 65856,
        "meta_bstar": 0.0010787428,
        "meta_mean_motion_dot": 4.237e-05,
        "meta_mean_motion_ddot": 0,
        "tle_line1": "1 35033U 93036AGW 25341.83686840  .00004237  00000+0  10787-2 0  9993",
        "tle_line2": "2 35033  74.0255 185.8020 0014382 292.4939  67.4698 14.50894479658560"
      },
      "geometry": {
        "type": "Point",
        "coordinates": [
          -168.15348026063123,
          25.180989581918244
        ]
      }
    },
    {
      "type": "Feature",
      "properties": {
        "norad_id": 35038,
        "name": "COSMOS 2251 DEB",
        "group": "cosmos-2251-debris",
        "lat": 2.3048549261968163,
        "lon": 50.42980610522746,
        "alt_km": 741.1055927915022,
        "timestamp": "2025-12-08T17:43:05.333809+00:00",
        "meta_object_name": "COSMOS 2251 DEB",
        "meta_object_id": "1993-036AHB",
        "meta_epoch": "2025-12-07T04:47:00.892896",
        "meta_mean_motion": 14.25090791,
        "meta_eccentricity": 0.01137219,
        "meta_inclination": 74.1064,
        "meta_ra_of_asc_node": 52.5358,
        "meta_arg_of_pericenter": 37.9776,
        "meta_mean_anomaly": 353.0868,
        "meta_ephemeris_type": 0,
        "meta_classification_type": "U",
        "meta_norad_cat_id": 35038,
        "meta_element_set_no": 999,
        "meta_rev_at_epoch": 85490,
        "meta_bstar": 0.0014810434,
        "meta_mean_motion_dot": 3.692e-05,
        "meta_mean_motion_ddot": 0,
        "tle_line1": "1 35038U 93036AHB 25341.19931589  .00003692  00000+0  14810-2 0  9995",
        "tle_line2": "2 35038  74.1064  52.5358 0113721  37.9776 353.0868 14.25090791854902"
      },
      "geometry": {
        "type": "Point",
        "coordinates": [
          50.42980610522746,
          2.3048549261968163
        ]
      }
    },
    {
      "type": "Feature",
      "properties": {
        "norad_id": 35043,
        "name": "COSMOS 2251 DEB",
        "group": "cosmos-2251-debris",
        "lat": 1.6838169190855847,
        "lon": -127.0228225914805,
        "alt_km": 636.172610594097,
        "timestamp": "2025-12-08T17:43:05.333819+00:00",
        "meta_object_name": "COSMOS 2251 DEB",
        "meta_object_id": "1993-036AHG",
        "meta_epoch": "2025-12-07T23:01:03.149472",
        "meta_mean_motion": 14.76553805,
        "meta_eccentricity": 0.00972573,
        "meta_inclination": 73.9525,
        "meta_ra_of_asc_node": 54.9959,
        "meta_arg_of_pericenter": 265.11,
        "meta_mean_anomaly": 93.8965,
        "meta_ephemeris_type": 0,
        "meta_classification_type": "U",
        "meta_norad_cat_id": 35043,
        "meta_element_set_no": 999,
        "meta_rev_at_epoch": 67348,
        "meta_bstar": 0.0051005631,
        "meta_mean_motion_dot": 0.00038635,
        "meta_mean_motion_ddot": 0,
        "tle_line1": "1 35043U 93036AHG 25341.95906423  .00038635  00000+0  51006-2 0  9997",
        "tle_line2": "2 35043  73.9525  54.9959 0097257 265.1100  93.8965 14.76553805673486"
      },
      "geometry": {
        "type": "Point",
        "coordinates": [
          -127.0228225914805,
          1.6838169190855847
        ]
      }
    },
    {
      "type": "Feature",
      "properties": {
        "norad_id": 35045,
        "name": "COSMOS 2251 DEB",
        "group": "cosmos-2251-debris",
        "lat": 26.08807746504907,
        "lon": 67.99820194099365,
        "alt_km": 877.2284470081886,
        "timestamp": "2025-12-08T17:43:05.333831+00:00",
        "meta_object_name": "COSMOS 2251 DEB",
        "meta_object_id": "1993-036AHJ",
        "meta_epoch": "2025-12-06T22:43:41.331360",
        "meta_mean_motion": 14.0036659,
        "meta_eccentricity": 0.0183364,
        "meta_inclination": 73.7196,
        "meta_ra_of_asc_node": 62.9336,
        "meta_arg_of_pericenter": 305.7539,
        "meta_mean_anomaly": 52.6659,
        "meta_ephemeris_type": 0,
        "meta_classification_type": "U",
        "meta_norad_cat_id": 35045,
        "meta_element_set_no": 999,
        "meta_rev_at_epoch": 84562,
        "meta_bstar": 0.0010227315,
        "meta_mean_motion_dot": 1.724e-05,
        "meta_mean_motion_ddot": 0,
        "tle_line1": "1 35045U 93036AHJ 25340.94700615  .00001724  00000+0  10227-2 0  9991",
        "tle_line2": "2 35045  73.7196  62.9336 0183364 305.7539  52.6659 14.00366590845620"
      },
      "geometry": {
        "type": "Point",
        "coordinates": [
          67.99820194099365,
          26.08807746504907
        ]
      }
    },
    {
      "type": "Feature",
      "properties": {
        "norad_id": 35060,
        "name": "COSMOS 2251 DEB",
        "group": "cosmos-2251-debris",
        "lat": 55.65892252696786,
        "lon": -83.48387176322657,
        "alt_km": 745.8177481258253,
        "timestamp": "2025-12-08T17:43:05.333841+00:00",
        "meta_object_name": "COSMOS 2251 DEB",
        "meta_object_id": "1993-036AHP",
        "meta_epoch": "2025-11-28T02:37:07.839264",
        "meta_mean_motion": 14.41547968,
        "meta_eccentricity": 0.00179641,
        "meta_inclination": 74.0363,
        "meta_ra_of_asc_node": 271.4275,
        "meta_arg_of_pericenter": 359.5881,
        "meta_mean_anomaly": 0.5257,
        "meta_ephemeris_type": 0,
        "meta_classification_type": "U",
        "meta_norad_cat_id": 35060,
        "meta_element_set_no": 999,
        "meta_rev_at_epoch": 87031,
        "meta_bstar": 0.0004076845,
        "meta_mean_motion_dot": 1.301e-05,
        "meta_mean_motion_ddot": 0,
        "tle_line1": "1 35060U 93036AHP 25332.10911851  .00001301  00000+0  40768-3 0  9998",
        "tle_line2": "2 35060  74.0363 271.4275 0017964 359.5881   0.5257 14.41547968870310"
      },
      "geometry": {
        "type": "Point",
        "coordinates": [
          -83.48387176322657,
          55.65892252696786
        ]
      }
    },
    {
      "type": "Feature",
      "properties": {
        "norad_id": 35061,
        "name": "COSMOS 2251 DEB",
        "group": "cosmos-2251-debris",
        "lat": -67.57770627095421,
        "lon": -90.43873304159932,
        "alt_km": 695.9160407609515,
        "timestamp": "2025-12-08T17:43:05.333852+00:00",
        "meta_object_name": "COSMOS 2251 DEB",
        "meta_object_id": "1993-036AHQ",
        "meta_epoch": "2025-12-07T15:52:57.034272",
        "meta_mean_motion": 14.6775941,
        "meta_eccentricity": 0.00389324,
        "meta_inclination": 74.0462,
        "meta_ra_of_asc_node": 315.5288,
        "meta_arg_of_pericenter": 67.9184,
        "meta_mean_anomaly": 292.6113,
        "meta_ephemeris_type": 0,
        "meta_classification_type": "U",
        "meta_norad_cat_id": 35061,
        "meta_element_set_no": 999,
        "meta_rev_at_epoch": 88500,
        "meta_bstar": 0.0013491541,
        "meta_mean_motion_dot": 7.757e-05,
        "meta_mean_motion_ddot": 0,
        "tle_line1": "1 35061U 93036AHQ 25341.66177123  .00007757  00000+0  13492-2 0  9990",
        "tle_line2": "2 35061  74.0462 315.5288 0038932  67.9184 292.6113 14.67759410885001"
      },
      "geometry": {
        "type": "Point",
        "coordinates": [
          -90.43873304159932,
          -67.57770627095421
        ]
      }
    },
    {
      "type": "Feature",
      "properties": {
        "norad_id": 35062,
        "name": "COSMOS 2251 DEB",
        "group": "cosmos-2251-debris",
        "lat": -74.03934705796533,
        "lon": 6.819063193165778,
        "alt_km": 912.4191744000191,
        "timestamp": "2025-12-08T17:43:05.333863+00:00",
        "meta_object_name": "COSMOS 2251 DEB",
        "meta_object_id": "1993-036AHR",
        "meta_epoch": "2025-12-08T08:01:44.515200",
        "meta_mean_motion": 14.2287727,
        "meta_eccentricity": 0.01278726,
        "meta_inclination": 74.0789,
        "meta_ra_of_asc_node": 101.1426,
        "meta_arg_of_pericenter": 102.1505,
        "meta_mean_anomaly": 259.4,
        "meta_ephemeris_type": 0,
        "meta_classification_type": "U",
        "meta_norad_cat_id": 35062,
        "meta_element_set_no": 999,
        "meta_rev_at_epoch": 85436,
        "meta_bstar": 0.0023515819,
        "meta_mean_motion_dot": 5.727e-05,
        "meta_mean_motion_ddot": 0,
        "tle_line1": "1 35062U 93036AHR 25342.33454300  .00005727  00000+0  23516-2 0  9994",
        "tle_line2": "2 35062  74.0789 101.1426 0127872 102.1505 259.4000 14.22877270854365"
      },
      "geometry": {
        "type": "Point",
        "coordinates": [
          6.819063193165778,
          -74.03934705796533
        ]
      }
    }
  ]
}